OBJECT_NAME,OBJECT_ID,EPOCH,MEAN_MOTION,ECCENTRICITY,INCLINATION,RA_OF_ASC_NODE,ARG_OF_PERICENTER,MEAN_ANOMALY,EPHEMERIS_TYPE,CLASSIFICATION_TYPE,NORAD_CAT_ID,ELEMENT_SET_NO,REV_AT_EPOCH,BSTAR,MEAN_MOTION_DOT,MEAN_MOTION_DDOT
SAUDISAT 1C (SO-50),2002-058C,2026-06-13T07:28:46.158240,14.83039133,.00753399,64.5508,140.9762,263.1926,96.0604,0,U,27607,999,26388,.1308805E-3,.964E-5,0
SAUDISAT 3,2007-012B,2026-06-13T09:10:53.228928,14.71423636,.00134536,98.1455,114.7806,236.9171,123.0744,0,U,31118,999,2718,.45778184E-4,.233E-5,0
FLYING LAPTOP,2017-042G,2026-06-13T15:39:48.337920,15.01123834,.00194549,97.4665,320.3218,133.2428,227.0425,0,U,42831,999,48592,.22575636E-3,.2844E-4,0
SALSAT,2020-068K,2026-06-13T14:43:13.047744,15.29752133,.00083104,97.8845,167.4603,323.2809,36.7860,0,U,46495,999,31481,.28494451E-3,.8137E-4,0
