{"fetched_at":"2026-06-14T03:48:42Z","count":16735,"tles":[{"name":"SAUDISAT 1C (SO-50)","line1":"1 27607U 02058C   26164.31164535  .00000964  00000+0  13088-3 0  9995","line2":"2 27607  64.5508 140.9762 0075339 263.1926  96.0604 14.83039133263884","category":"Other"},{"name":"FLYING LAPTOP","line1":"1 42831U 17042G   26164.65264280  .00002844  00000+0  22576-3 0  9996","line2":"2 42831  97.4665 320.3218 0019454 133.2428 227.0425 15.01123834485920","category":"Other"},{"name":"SALSAT","line1":"1 46495U 20068K   26164.61334546  .00008137  00000+0  28494-3 0  9993","line2":"2 46495  97.8845 167.4603 0008310 323.2809  36.7860 15.29752133314812","category":"Other"},{"name":"SAUDISAT 3","line1":"1 31118U 07012B   26164.38256052  .00000233  00000+0  45778-4 0  9996","line2":"2 31118  98.1455 114.7806 0013453 236.9171 123.0744 14.71423636 27186","category":"Other"}]}